QIANFAN-89              
1 63175U 25046S   25231.85424078  .00000132  00000+0  18500-3 0  9992
2 63175  88.9864 331.8844 0018556  99.3447 260.9803 13.50968533 31891
QIANFAN-90              
1 63176U 25046T   25231.88304171  .00000111  00000+0  15363-3 0  9998
2 63176  88.9864 331.8536 0015477  97.9951 262.2957 13.50967431 31917
